start=new Date('2023-01-17T00:00:00.000Z').valueOf();
sats=[{"OBJECT_NAME":"STARLINK-2351","MEAN_ANOMALY":"285.1496","EPOCH":"2023-01-16T17:48:06.201216","PERIAPSIS":"545.664","OBJECT_ID":"2021-021AH","REV_AT_EPOCH":"10319","ECCENTRICITY":"0.00022220","CLASSIFICATION_TYPE":"U","BSTAR":"-0.00019989000000","TIME_SYSTEM":"UTC","DECAY_DATE":null,"OBJECT_TYPE":"PAYLOAD","MEAN_MOTION_DOT":"-0.00003258","TLE_LINE1":"1 47891U 21021AH  23016.74173844 -.00003258  00000-0 -19989-3 0  9994","ELEMENT_SET_NO":"999","APOAPSIS":"548.741","SEMIMAJOR_AXIS":"6925.338","COUNTRY_CODE":"US","FILE":"3750956","GP_ID":"223250014","LAUNCH_DATE":"2021-03-14","MEAN_MOTION_DDOT":"0.0000000000000","TLE_LINE2":"2 47891  53.0539  34.9621 0002222  74.9738 285.1496 15.06403583103191","INCLINATION":"53.0539","ARG_OF_PERICENTER":"74.9738","RA_OF_ASC_NODE":"34.9621","MEAN_ELEMENT_THEORY":"SGP4","PERIOD":"95.592","EPHEMERIS_TYPE":"0","CENTER_NAME":"EARTH","REF_FRAME":"TEME","MEAN_MOTION":"15.06403583","NORAD_CAT_ID":"47891","SITE":"AFETR","RCS_SIZE":"LARGE"},{"ECCENTRICITY":"0.00021460","REV_AT_EPOCH":"10337","CLASSIFICATION_TYPE":"U","EPOCH":"2023-01-16T17:03:48.928608","MEAN_ANOMALY":"298.7816","OBJECT_NAME":"STARLINK-2352","PERIAPSIS":"512.256","OBJECT_ID":"2021-021AJ","ELEMENT_SET_NO":"999","MEAN_MOTION_DOT":"-0.00002407","TLE_LINE1":"1 47892U 21021AJ  23016.71098297 -.00002407  00000-0 -10350-3 0  9998","BSTAR":"-0.00010350000000","TIME_SYSTEM":"UTC","DECAY_DATE":null,"OBJECT_TYPE":"PAYLOAD","TLE_LINE2":"2 47892  53.0541  10.8807 0002146  61.3393 298.7816 15.17389615103373","INCLINATION":"53.0541","MEAN_MOTION_DDOT":"0.0000000000000","ARG_OF_PERICENTER":"61.3393","MEAN_ELEMENT_THEORY":"SGP4","RA_OF_ASC_NODE":"10.8807","PERIOD":"94.900","SEMIMAJOR_AXIS":"6891.870","APOAPSIS":"515.214","FILE":"3750956","GP_ID":"223250264","COUNTRY_CODE":"US","LAUNCH_DATE":"2021-03-14","MEAN_MOTION":"15.17389615","NORAD_CAT_ID":"47892","SITE":"AFETR","RCS_SIZE":"LARGE","EPHEMERIS_TYPE":"0","REF_FRAME":"TEME","CENTER_NAME":"EARTH"},{"REV_AT_EPOCH":"10313","ECCENTRICITY":"0.00011390","CLASSIFICATION_TYPE":"U","OBJECT_NAME":"STARLINK-2354","MEAN_ANOMALY":"306.6772","EPOCH":"2023-01-16T19:56:48.444000","PERIAPSIS":"546.517","OBJECT_ID":"2021-021AL","MEAN_MOTION_DOT":"0.00004081","TLE_LINE1":"1 47894U 21021AL  23016.83111625  .00004081  00000-0  29293-3 0  9998","ELEMENT_SET_NO":"999","BSTAR":"0.00029293000000","TIME_SYSTEM":"UTC","OBJECT_TYPE":"PAYLOAD","DECAY_DATE":null,"MEAN_MOTION_DDOT":"0.0000000000000","TLE_LINE2":"2 47894  53.0557  24.5648 0001139  53.4321 306.6772 15.06369900103138","ARG_OF_PERICENTER":"53.4321","INCLINATION":"53.0557","RA_OF_ASC_NODE":"24.5648","MEAN_ELEMENT_THEORY":"SGP4","PERIOD":"95.594","APOAPSIS":"548.095","SEMIMAJOR_AXIS":"6925.441","COUNTRY_CODE":"US","GP_ID":"223251512","FILE":"3750956","LAUNCH_DATE":"2021-03-14","MEAN_MOTION":"15.06369900","NORAD_CAT_ID":"47894","SITE":"AFETR","RCS_SIZE":"LARGE","EPHEMERIS_TYPE":"0","CENTER_NAME":"EARTH","REF_FRAME":"TEME"},{"OBJECT_ID":"2021-021AM","PERIAPSIS":"545.442","MEAN_ANOMALY":"275.3941","EPOCH":"2023-01-16T17:01:39.445248","OBJECT_NAME":"STARLINK-2355","CLASSIFICATION_TYPE":"U","ECCENTRICITY":"0.00025510","REV_AT_EPOCH":"10314","TIME_SYSTEM":"UTC","OBJECT_TYPE":"PAYLOAD","DECAY_DATE":null,"BSTAR":"-0.00003146900000","ELEMENT_SET_NO":"999","MEAN_MOTION_DOT":"-0.00000751","TLE_LINE1":"1 47895U 21021AM  23016.70948432 -.00000751  00000-0 -31469-4 0  9990","FILE":"3750956","GP_ID":"223251266","COUNTRY_CODE":"US","LAUNCH_DATE":"2021-03-14","SEMIMAJOR_AXIS":"6925.344","APOAPSIS":"548.976","MEAN_ELEMENT_THEORY":"SGP4","RA_OF_ASC_NODE":"25.0921","PERIOD":"95.592","TLE_LINE2":"2 47895  53.0568  25.0921 0002551  84.7339 275.3941 15.06401446103149","MEAN_MOTION_DDOT":"0.0000000000000","INCLINATION":"53.0568","ARG_OF_PERICENTER":"84.7339","REF_FRAME":"TEME","CENTER_NAME":"EARTH","EPHEMERIS_TYPE":"0","SITE":"AFETR","RCS_SIZE":"LARGE","MEAN_MOTION":"15.06401446","NORAD_CAT_ID":"47895"},{"COUNTRY_CODE":"US","FILE":"3750956","GP_ID":"223250515","LAUNCH_DATE":"2021-03-14","APOAPSIS":"548.778","SEMIMAJOR_AXIS":"6925.359","RA_OF_ASC_NODE":"39.8420","MEAN_ELEMENT_THEORY":"SGP4","PERIOD":"95.592","TLE_LINE2":"2 47896  53.0546  39.8420 0002244  81.3954 278.7289 15.06396531102912","MEAN_MOTION_DDOT":"0.0000000000000","ARG_OF_PERICENTER":"81.3954","INCLINATION":"53.0546","CENTER_NAME":"EARTH","REF_FRAME":"TEME","EPHEMERIS_TYPE":"0","SITE":"AFETR","RCS_SIZE":"LARGE","MEAN_MOTION":"15.06396531","NORAD_CAT_ID":"47896","PERIAPSIS":"545.670","OBJECT_ID":"2021-021AN","OBJECT_NAME":"STARLINK-2356","EPOCH":"2023-01-16T18:27:14.955840","MEAN_ANOMALY":"278.7289","CLASSIFICATION_TYPE":"U","ECCENTRICITY":"0.00022440","REV_AT_EPOCH":"10291","TIME_SYSTEM":"UTC","DECAY_DATE":null,"OBJECT_TYPE":"PAYLOAD","BSTAR":"-0.00004978300000","MEAN_MOTION_DOT":"-0.00001023","TLE_LINE1":"1 47896U 21021AN  23016.76892310 -.00001023  00000-0 -49783-4 0  9991","ELEMENT_SET_NO":"999"},{"SITE":"AFETR","RCS_SIZE":"LARGE","MEAN_MOTION":"15.06407231","NORAD_CAT_ID":"47897","CENTER_NAME":"EARTH","REF_FRAME":"TEME","EPHEMERIS_TYPE":"0","RA_OF_ASC_NODE":"25.1118","MEAN_ELEMENT_THEORY":"SGP4","PERIOD":"95.592","INCLINATION":"53.0544","TLE_LINE2":"2 47897  53.0544  25.1118 0001972  92.6617 267.4598 15.06407231103178","MEAN_MOTION_DDOT":"0.0000000000000","ARG_OF_PERICENTER":"92.6617","COUNTRY_CODE":"US","FILE":"3750956","GP_ID":"223250765","LAUNCH_DATE":"2021-03-14","APOAPSIS":"548.557","SEMIMAJOR_AXIS":"6925.326","MEAN_MOTION_DOT":"0.00004606","TLE_LINE1":"1 47897U 21021AP  23016.70853854  .00004606  00000-0  32784-3 0  9996","ELEMENT_SET_NO":"999","TIME_SYSTEM":"UTC","DECAY_DATE":null,"OBJECT_TYPE":"PAYLOAD","BSTAR":"0.00032784000000","CLASSIFICATION_TYPE":"U","REV_AT_EPOCH":"10317","ECCENTRICITY":"0.00019720","OBJECT_ID":"2021-021AP","PERIAPSIS":"545.826","OBJECT_NAME":"STARLINK-2357","MEAN_ANOMALY":"267.4598","EPOCH":"2023-01-16T17:00:17.729856"},{"DECAY_DATE":null,"OBJECT_TYPE":"PAYLOAD","TIME_SYSTEM":"UTC","BSTAR":"0.00087536000000","TLE_LINE1":"1 47898U 21021AQ  23016.43672161  .00012790  00000-0  87536-3 0  9995","MEAN_MOTION_DOT":"0.00012790","ELEMENT_SET_NO":"999","OBJECT_ID":"2021-021AQ","PERIAPSIS":"545.613","OBJECT_NAME":"STARLINK-2358","EPOCH":"2023-01-16T10:28:52.747104","MEAN_ANOMALY":"289.7251","CLASSIFICATION_TYPE":"U","ECCENTRICITY":"0.00022030","REV_AT_EPOCH":"10307","CENTER_NAME":"EARTH","REF_FRAME":"TEME","EPHEMERIS_TYPE":"0","RCS_SIZE":"LARGE","SITE":"AFETR","NORAD_CAT_ID":"47898","MEAN_MOTION":"15.06424475","LAUNCH_DATE":"2021-03-14","COUNTRY_CODE":"US","FILE":"3749606","GP_ID":"223198693","APOAPSIS":"548.664","SEMIMAJOR_AXIS":"6925.274","PERIOD":"95.591","RA_OF_ASC_NODE":"26.3345","MEAN_ELEMENT_THEORY":"SGP4","ARG_OF_PERICENTER":"70.3976","TLE_LINE2":"2 47898  53.0531  26.3345 0002203  70.3976 289.7251 15.06424475103070","MEAN_MOTION_DDOT":"0.0000000000000","INCLINATION":"53.0531"},{"CLASSIFICATION_TYPE":"U","REV_AT_EPOCH":"10332","ECCENTRICITY":"0.00020620","PERIAPSIS":"545.786","OBJECT_ID":"2021-021AR","EPOCH":"2023-01-16T18:21:14.259168","MEAN_ANOMALY":"285.2760","OBJECT_NAME":"STARLINK-2359","ELEMENT_SET_NO":"999","MEAN_MOTION_DOT":"0.00013946","TLE_LINE1":"1 47899U 21021AR  23016.76474837  .00013946  00000-0  95331-3 0  9998","TIME_SYSTEM":"UTC","OBJECT_TYPE":"PAYLOAD","DECAY_DATE":null,"BSTAR":"0.00095331000000","MEAN_ELEMENT_THEORY":"SGP4","RA_OF_ASC_NODE":"14.8453","PERIOD":"95.592","INCLINATION":"53.0551","TLE_LINE2":"2 47899  53.0551  14.8453 0002062  74.8457 285.2760 15.06400013103327","MEAN_MOTION_DDOT":"0.0000000000000","ARG_OF_PERICENTER":"74.8457","FILE":"3750956","GP_ID":"223251767","COUNTRY_CODE":"US","LAUNCH_DATE":"2021-03-14","SEMIMAJOR_AXIS":"6925.349","APOAPSIS":"548.642","SITE":"AFETR","RCS_SIZE":"LARGE","MEAN_MOTION":"15.06400013","NORAD_CAT_ID":"47899","REF_FRAME":"TEME","CENTER_NAME":"EARTH","EPHEMERIS_TYPE":"0"},{"MEAN_ANOMALY":"270.7511","EPOCH":"2023-01-16T17:21:32.260320","OBJECT_NAME":"STARLINK-2360","OBJECT_ID":"2021-021AS","PERIAPSIS":"545.180","ECCENTRICITY":"0.00030080","REV_AT_EPOCH":"10317","CLASSIFICATION_TYPE":"U","BSTAR":"-0.00042188000000","OBJECT_TYPE":"PAYLOAD","DECAY_DATE":null,"TIME_SYSTEM":"UTC","ELEMENT_SET_NO":"999","MEAN_MOTION_DOT":"-0.00006558","TLE_LINE1":"1 47900U 21021AS  23016.72329005 -.00006558  00000-0 -42188-3 0  9998","SEMIMAJOR_AXIS":"6925.398","APOAPSIS":"549.346","LAUNCH_DATE":"2021-03-14","GP_ID":"223250015","FILE":"3750956","COUNTRY_CODE":"US","TLE_LINE2":"2 47900  53.0517  25.0508 0003008  89.3823 270.7511 15.06383917103175","MEAN_MOTION_DDOT":"0.0000000000000","INCLINATION":"53.0517","ARG_OF_PERICENTER":"89.3823","PERIOD":"95.593","MEAN_ELEMENT_THEORY":"SGP4","RA_OF_ASC_NODE":"25.0508","EPHEMERIS_TYPE":"0","REF_FRAME":"TEME","CENTER_NAME":"EARTH","NORAD_CAT_ID":"47900","MEAN_MOTION":"15.06383917","RCS_SIZE":"LARGE","SITE":"AFETR"},{"EPHEMERIS_TYPE":"0","CENTER_NAME":"EARTH","REF_FRAME":"TEME","NORAD_CAT_ID":"47901","MEAN_MOTION":"15.06408268","RCS_SIZE":"LARGE","SITE":"AFETR","APOAPSIS":"548.924","SEMIMAJOR_AXIS":"6925.323","LAUNCH_DATE":"2021-03-14","COUNTRY_CODE":"US","GP_ID":"223250265","FILE":"3750956","MEAN_MOTION_DDOT":"0.0000000000000","TLE_LINE2":"2 47901  53.0534  15.2896 0002507  56.7370 303.3859 15.06408268103292","ARG_OF_PERICENTER":"56.7370","INCLINATION":"53.0534","PERIOD":"95.592","RA_OF_ASC_NODE":"15.2896","MEAN_ELEMENT_THEORY":"SGP4","BSTAR":"0.00048265000000","OBJECT_TYPE":"PAYLOAD","DECAY_DATE":null,"TIME_SYSTEM":"UTC","TLE_LINE1":"1 47901U 21021AT  23016.68829918  .00006916  00000-0  48265-3 0  9990","MEAN_MOTION_DOT":"0.00006916","ELEMENT_SET_NO":"999","OBJECT_NAME":"STARLINK-2361","EPOCH":"2023-01-16T16:31:09.049152","MEAN_ANOMALY":"303.3859","PERIAPSIS":"545.452","OBJECT_ID":"2021-021AT","ECCENTRICITY":"0.00025070","REV_AT_EPOCH":"10329","CLASSIFICATION_TYPE":"U"}];
